      2.10          N: GNSS NAV DATA                        RINEX VERSION / TYPE
fic2rin                                 10/31/2024 00:59:02 PGM / RUN BY / DATE
                                                            END OF HEADER
7  24 10 30  1 59 44.0 -.236127525568D-04  .284217094304D-11  .000000000000D+00
     .660000000000D+02 -.205312500000D+02  .461626371448D-08 -.107135890187D+01
    -.730156898499D-06  .188108959701D-01  .101178884506D-04  .515360145187D+04
     .266384000000D+06  .189989805222D-06  .240698232164D+01  .456348061562D-06
     .950455039502D+00  .177968750000D+03 -.209592839366D+01 -.814962517889D-08
    -.285726187357D-09  .100000000000D+01  .233800000000D+04  .000000000000D+00
     .240000000000D+01  .000000000000D+00 -.107102096081D-07  .660000000000D+02
     .259200000000D+06  .400000000000D+01
25 24 10 30  1 59 44.0  .499315559864D-03 -.227373675443D-12  .000000000000D+00
     .600000000000D+01  .102875000000D+03  .479519973932D-08 -.195999943512D+01
     .523775815964D-05  .119712776504D-01  .825338065624D-05  .515371804619D+04
     .266384000000D+06  .212341547012D-06 -.284893977881D+01 -.670552253723D-07
     .949929319409D+00  .211406250000D+03  .109554771981D+01 -.804676375144D-08
     .520378818724D-09  .100000000000D+01  .233800000000D+04  .000000000000D+00
     .240000000000D+01  .000000000000D+00  .558793544769D-08  .600000000000D+01
     .259200000000D+06  .400000000000D+01
30 24 10 30  1 59 44.0 -.292408280075D-03  .761701812735D-11  .000000000000D+00
     .360000000000D+02 -.228125000000D+02  .490091842864D-08 -.120177044147D+01
    -.119023025036D-05  .713750766590D-02  .102110207081D-04  .515378949165D+04
     .266384000000D+06  .195577740669D-06  .240527178858D+01  .353902578354D-07
     .935614202258D+00  .164937500000D+03 -.246057690772D+01 -.816784022333D-08
    -.262510934634D-09  .100000000000D+01  .233800000000D+04  .000000000000D+00
     .240000000000D+01  .000000000000D+00  .372529029846D-08  .360000000000D+02
     .259200000000D+06  .400000000000D+01
26 24 10 30  1 59 44.0  .430471263826D-04 -.989075488178D-11  .000000000000D+00
     .230000000000D+02  .912500000000D+02  .512521348571D-08 -.271057205098D+01
     .447593629360D-05  .946439418476D-02  .963918864727D-05  .515372708893D+04
     .266384000000D+06 -.186264514923D-07 -.291430561232D+01 -.234693288803D-06
     .930718864359D+00  .179875000000D+03  .570317453108D+00 -.823605735056D-08
     .400730977768D-09  .100000000000D+01  .233800000000D+04  .000000000000D+00
     .240000000000D+01  .000000000000D+00  .651925802231D-08  .230000000000D+02
     .259200000000D+06  .400000000000D+01
2  24 10 30  2  0  0.0 -.326095614582D-03  .841282599140D-11  .000000000000D+00
     .970000000000D+02 -.929062500000D+02  .429267880730D-08  .187123961193D+01
    -.482238829136D-05  .163008620730D-01  .825151801109D-05  .515368834877D+04
     .266400000000D+06  .262632966042D-06 -.819324610262D+00 -.242143869400D-07
     .966822143566D+00  .215312500000D+03 -.111019079686D+01 -.779139597149D-08
    -.526450500205D-09  .100000000000D+01  .233800000000D+04  .000000000000D+00
     .240000000000D+01  .000000000000D+00 -.176951289177D-07  .970000000000D+02
     .259200000000D+06  .400000000000D+01
5  24 10 30  2  0  0.0 -.191385392100D-03 -.125055521494D-11  .000000000000D+00
     .470000000000D+02  .396250000000D+02  .414481550535D-08  .204040457266D+01
     .189244747162D-05  .573953019921D-02  .966899096966D-05  .515369200706D+04
     .266400000000D+06  .968575477600D-07  .264317121503D+00 -.856816768646D-07
     .973847425820D+00  .200000000000D+03  .133694641851D+01 -.781211112007D-08
     .408945605655D-09  .100000000000D+01  .233800000000D+04  .000000000000D+00
     .240000000000D+01  .000000000000D+00 -.107102096081D-07  .470000000000D+02
     .259200000000D+06  .400000000000D+01
12 24 10 30  2  0  0.0 -.548593699932D-03 -.261479726760D-11  .000000000000D+00
     .400000000000D+01  .102593750000D+03  .463269297026D-08 -.178492153068D+01
     .553578138351D-05  .879832170904D-02  .766105949879D-05  .515357739067D+04
     .266400000000D+06  .158324837685D-06 -.276065098305D+01  .147148966789D-06
     .961834451648D+00  .232781250000D+03  .146473299445D+01 -.808747973314D-08
     .473591155544D-09  .100000000000D+01  .233800000000D+04  .000000000000D+00
     .240000000000D+01  .000000000000D+00 -.125728547573D-07  .400000000000D+01
     .259200000000D+06  .400000000000D+01
6  24 10 30  2  0  0.0 -.755060464144D-04 -.284217094304D-10  .000000000000D+00
     .107000000000D+03 -.666562500000D+02  .373729853063D-08 -.174423631890D+00
    -.348128378391D-05  .319464597851D-02  .103935599327D-04  .515372187424D+04
     .266400000000D+06 -.372529029846D-08 -.717558529559D+00 -.316649675369D-07
     .989560814700D+00  .197312500000D+03 -.769283583863D+00 -.767460539241D-08
    -.349300264044D-09  .100000000000D+01  .233800000000D+04  .000000000000D+00
     .240000000000D+01  .000000000000D+00  .372529029846D-08  .107000000000D+03
     .259200000000D+06  .400000000000D+01
3  24 10 30  2  0  0.0  .585274305195D-03  .111413100967D-10  .000000000000D+00
     .950000000000D+02  .362500000000D+02  .379801534544D-08 -.164974641237D+01
     .184774398804D-05  .566757807974D-02  .957399606705D-05  .515363793564D+04
     .266400000000D+06  .115483999252D-06  .317659254732D+00  .409781932831D-07
     .986930085691D+00  .210531250000D+03  .116249495607D+01 -.763746098805D-08
     .354657630057D-09  .100000000000D+01  .233800000000D+04  .000000000000D+00
     .340000000000D+01  .000000000000D+00  .139698386192D-08  .950000000000D+02
     .259200000000D+06  .400000000000D+01
4  24 10 30  2  0  0.0  .470553059131D-03  .659383658785D-11  .000000000000D+00
     .156000000000D+03 -.182500000000D+02  .469126683867D-08  .141867630298D+01
    -.854954123497D-06  .310873682611D-02  .425241887569D-05  .515368911934D+04
     .266400000000D+06 -.447034835815D-07  .139471444069D+01  .353902578354D-07
     .965595963668D+00  .300531250000D+03 -.300841880136D+01 -.825355807954D-08
    -.110361739867D-09  .100000000000D+01  .233800000000D+04  .000000000000D+00
     .240000000000D+01  .000000000000D+00 -.465661287308D-08  .924000000000D+03
     .259200000000D+06  .400000000000D+01
15 24 10 30  2  0  0.0  .221648253500D-03  .443378667114D-11  .000000000000D+00
     .180000000000D+02  .184375000000D+01  .553237330270D-08  .719181948769D+00
     .856816768646D-07  .161796988687D-01  .434555113316D-05  .515370973206D+04
     .266400000000D+06 -.221654772758D-06  .120203029083D+01 -.104308128357D-06
     .936503195631D+00  .288500000000D+03  .137245743241D+01 -.891429988780D-08
    -.635740766869D-10  .100000000000D+01  .233800000000D+04  .000000000000D+00
     .240000000000D+01  .000000000000D+00 -.102445483208D-07  .180000000000D+02
     .259200000000D+06  .400000000000D+01
19 24 10 30  2  0  0.0  .556606333703D-03  .454747350886D-11  .000000000000D+00
     .100000000000D+02 -.335000000000D+02  .475912680816D-08 -.273710582566D+01
    -.160001218319D-05  .997630017810D-02  .297836959362D-05  .515374431801D+04
     .266400000000D+06 -.154599547386D-06 -.167776772311D+01  .100582838058D-06
     .965469206205D+00  .325937500000D+03  .267167860371D+01 -.823248577322D-08
    -.197151069276D-09  .100000000000D+01  .233800000000D+04  .000000000000D+00
     .240000000000D+01  .000000000000D+00 -.153668224812D-07  .100000000000D+02
     .259200000000D+06  .400000000000D+01
10 24 10 30  2  0  0.0 -.176574103534D-03 -.138697942020D-10  .000000000000D+00
     .740000000000D+02  .341250000000D+02  .373122684915D-08 -.258963842554D+01
     .172108411789D-05  .987621315289D-02  .996328890324D-05  .515368405342D+04
     .266400000000D+06  .558793544769D-07  .315121517573D+00 -.121071934700D-06
     .986567611164D+00  .199656250000D+03 -.236840161407D+01 -.748209737367D-08
     .508949771229D-09  .100000000000D+01  .233800000000D+04  .000000000000D+00
     .240000000000D+01  .000000000000D+00  .232830643654D-08  .740000000000D+02
     .259200000000D+06  .400000000000D+01
22 24 10 30  2  0  0.0 -.752983614802D-04 -.318323145621D-11  .000000000000D+00
     .950000000000D+02  .103906250000D+03  .452983154281D-08  .220325073085D+01
     .530667603016D-05  .138987249229D-01  .715628266335D-05  .515368958092D+04
     .266400000000D+06  .191852450371D-06 -.273968782779D+01  .596046447754D-07
     .960568819776D+00  .239125000000D+03 -.109633561677D+01 -.792140138673D-08
     .277511559470D-09  .100000000000D+01  .233800000000D+04  .000000000000D+00
     .240000000000D+01  .000000000000D+00 -.111758708954D-07  .950000000000D+02
     .259200000000D+06  .400000000000D+01
16 24 10 30  2  0  0.0 -.141781289130D-03  .989075488178D-11  .000000000000D+00
     .720000000000D+02  .939375000000D+02  .452840291187D-08  .271017524908D+01
     .476092100143D-05  .141400677385D-01  .836327672005D-05  .515364586830D+04
     .266400000000D+06 -.502914190292D-07 -.274298053748D+01 -.219792127609D-06
     .961221853240D+00  .218656250000D+03  .849810210898D+00 -.784425531615D-08
     .414302971667D-09  .100000000000D+01  .233800000000D+04  .000000000000D+00
     .240000000000D+01  .000000000000D+00 -.102445483208D-07  .720000000000D+02
     .259200000000D+06  .400000000000D+01
21 24 10 30  2  0  0.0  .986587256193D-04 -.795807864051D-12  .000000000000D+00
     .500000000000D+02 -.917500000000D+02  .449232998072D-08  .153423432768D+01
    -.450015068054D-05  .254901064327D-01  .778399407864D-05  .515364096642D+04
     .266400000000D+06  .277534127235D-06 -.827440281432D+00  .294297933578D-06
     .961060402675D+00  .223468750000D+03 -.499630717362D+00 -.790068623815D-08
    -.677171064036D-09  .100000000000D+01  .233800000000D+04  .000000000000D+00
     .240000000000D+01  .000000000000D+00 -.102445483208D-07  .500000000000D+02
     .259200000000D+06  .400000000000D+01
